{
    "links": {
        "self": "http://www.neowsapp.com/rest/v1/neo/3856735?api_key=iIulBulltgU6a56xZRHN4H3l9WmuAYTsLGpBGhQ2"
    },
    "id": "3856735",
    "neo_reference_id": "3856735",
    "name": "(2019 SC5)",
    "designation": "2019 SC5",
    "nasa_jpl_url": "http://ssd.jpl.nasa.gov/sbdb.cgi?sstr=3856735",
    "absolute_magnitude_h": 24.6,
    "estimated_diameter": {
        "kilometers": {
            "estimated_diameter_min": 0.0319561887,
            "estimated_diameter_max": 0.0714562102
        },
        "meters": {
            "estimated_diameter_min": 31.9561886721,
            "estimated_diameter_max": 71.4562101727
        },
        "miles": {
            "estimated_diameter_min": 0.0198566489,
            "estimated_diameter_max": 0.0444008168
        },
        "feet": {
            "estimated_diameter_min": 104.8431420431,
            "estimated_diameter_max": 234.436392583
        }
    },
    "is_potentially_hazardous_asteroid": false,
    "close_approach_data": [
        {
            "close_approach_date": "2019-10-11",
            "close_approach_date_full": "2019-Oct-11 07:05",
            "epoch_date_close_approach": 1570777500000,
            "relative_velocity": {
                "kilometers_per_second": "11.632510052",
                "kilometers_per_hour": "41877.036187169",
                "miles_per_hour": "26020.7617352996"
            },
            "miss_distance": {
                "astronomical": "0.0821982204",
                "lunar": "31.9751077356",
                "kilometers": "12296678.689630548",
                "miles": "7640801.8290476424"
            },
            "orbiting_body": "Earth"
        },
        {
            "close_approach_date": "2020-03-10",
            "close_approach_date_full": "2020-Mar-10 05:04",
            "epoch_date_close_approach": 1583816640000,
            "relative_velocity": {
                "kilometers_per_second": "9.4165266363",
                "kilometers_per_hour": "33899.4958905314",
                "miles_per_hour": "21063.8284326471"
            },
            "miss_distance": {
                "astronomical": "0.3205112959",
                "lunar": "124.6788941051",
                "kilometers": "47947807.177579733",
                "miles": "29793385.8424889954"
            },
            "orbiting_body": "Earth"
        }
    ],
    "orbital_data": {
        "orbit_id": "5",
        "orbit_determination_date": "2020-01-10 05:23:54",
        "first_observation_date": "2019-09-25",
        "last_observation_date": "2019-10-05",
        "data_arc_in_days": 10,
        "observations_used": 24,
        "orbit_uncertainty": "8",
        "minimum_orbit_intersection": ".0786782",
        "jupiter_tisserand_invariant": "4.797",
        "epoch_osculation": "2458753.5",
        "eccentricity": ".3058023107527366",
        "semi_major_axis": "1.343982676665691",
        "inclination": "17.05464460233278",
        "ascending_node_longitude": "9.35284080540411",
        "orbital_period": "569.1004554963904",
        "perihelion_distance": ".9329896685296748",
        "perihelion_argument": "70.07520720718941",
        "aphelion_distance": "1.754975684801707",
        "perihelion_time": "2458820.417578707103",
        "mean_anomaly": "317.6694622155159",
        "mean_motion": ".6325772480466472",
        "equinox": "J2000",
        "orbit_class": {
            "orbit_class_type": "APO",
            "orbit_class_description": "Near-Earth asteroid orbits which cross the Earth’s orbit similar to that of 1862 Apollo",
            "orbit_class_range": "a (semi-major axis) > 1.0 AU; q (perihelion) < 1.017 AU"
        }
    },
    "is_sentry_object": false
}